FENGYUN 1C DEB          
1 36247U 99025DVY 17345.13952970  .00000183  00000-0  76017-4 0  9990
2 36247  98.6045  52.1625 0202409  15.4913 345.2341 14.27230540285125
